NORAD_CAT_ID,OBJECT_NAME,OBJECT_TYPE,EPOCH,MEAN_MOTION,ECCENTRICITY,INCLINATION,RA_OF_ASC_NODE,ARG_OF_PERICENTER,MEAN_ANOMALY,BSTAR,MEAN_MOTION_DOT,MEAN_MOTION_DDOT,TLE_LINE0,TLE_LINE1,TLE_LINE2,SEMIMAJOR_AXIS,PERIOD,APOGEE,PERIGEE,DECAYED
52850.0,STARLINK-4187,PAYLOAD,2022-12-01 01:51:16,15.08843368,0.0002271,53.2204,356.9426,36.5366,323.5781,1.6985e-05,-1.8e-07,0.0,0 STARLINK-4187,1 52850U 22062W   22335.07727965 -.00000018  00000-0  16985-4 0  9993,2 52850  53.2204 356.9426 0002271  36.5366 323.5781 15.08843368 25938,6917.87,95.437,541.306,538.164,0.0
52850.0,STARLINK-4187,PAYLOAD,2022-12-01 09:48:12,15.08844275,0.0002206,53.2199,355.4554,34.5742,325.5393,5.8846e-06,-1.95e-06,0.0,0 STARLINK-4187,1 52850U 22062W   22335.40847910 -.00000195  00000-0  58846-5 0  9992,2 52850  53.2199 355.4554 0002206  34.5742 325.5393 15.08844275 25491,6917.8669999999975,95.437,541.258,538.206,0.0
52850.0,STARLINK-4187,PAYLOAD,2022-12-02 01:42:04,15.0883443,0.0002429,53.2192,352.4846,27.8254,332.2867,0.00014808,2.069e-05,0.0,0 STARLINK-4187,1 52850U 22062W   22336.07088094  .00002069  00000-0  14808-3 0  9995,2 52850  53.2192 352.4846 0002429  27.8254 332.2867 15.08834430 26084,6917.897,95.438,541.443,538.082,0.0
52850.0,STARLINK-4187,PAYLOAD,2022-12-02 09:38:59,15.08839805,0.0002363,53.2191,350.9966,30.866,329.2471,0.00016232,2.296e-05,0.0,0 STARLINK-4187,1 52850U 22062W   22336.40207786  .00002296  00000-0  16232-3 0  9998,2 52850  53.2191 350.9966 0002363  30.8660 329.2471 15.08839805 25640,6917.880999999999,95.438,541.381,538.111,0.0
52850.0,STARLINK-4187,PAYLOAD,2022-12-02 17:35:55,15.0883883,0.0002352,53.219,349.5096,31.8744,328.2390000000001,8.286e-05,1.031e-05,0.0,0 STARLINK-4187,1 52850U 22062W   22336.73328090  .00001031  00000-0  82860-4 0  9993,2 52850  53.2190 349.5096 0002352  31.8744 328.2390 15.08838830 25690,6917.884,95.438,541.376,538.122,0.0
52850.0,STARLINK-4187,PAYLOAD,2022-12-03 06:19:00,15.08837545,0.0002392,53.2197,347.1298,32.3626,327.7513,-3.3603e-05,-8.23e-06,0.0,0 STARLINK-4187,1 52850U 22062W   22337.26320551 -.00000823  00000-0 -33603-4 0  9997,2 52850  53.2197 347.1298 0002392  32.3626 327.7513 15.08837545 26261,6917.888000000001,95.438,541.408,538.0980000000002,0.0
52850.0,STARLINK-4187,PAYLOAD,2022-12-03 11:05:10,15.08839608,0.0002396,53.2194,346.2378,34.7216,325.3932,-2.512300000000001e-05,-6.88e-06,0.0,0 STARLINK-4187,1 52850U 22062W   22337.46192392 -.00000688  00000-0 -25123-4 0  9996,2 52850  53.2194 346.2378 0002396  34.7216 325.3932 15.08839608 25802,6917.882,95.438,541.404,538.089,0.0
52850.0,STARLINK-4187,PAYLOAD,2022-12-03 17:26:42,15.08838732,0.0002426,53.2202,345.0485,33.7065,326.4081,9.7313e-05,1.261e-05,0.0,0 STARLINK-4187,1 52850U 22062W   22337.72688123  .00001261  00000-0  97313-4 0  9993,2 52850  53.2202 345.0485 0002426  33.7065 326.4081 15.08838732 25841,6917.884,95.438,541.428,538.071,0.0
52850.0,STARLINK-4187,PAYLOAD,2022-12-04 07:45:11,15.08836884,0.0002332,53.2211,342.3744,40.4302,319.6863,-4.1919e-05,-9.55e-06,0.0,0 STARLINK-4187,1 52850U 22062W   22338.32304811 -.00000955  00000-0 -41919-4 0  9991,2 52850  53.2211 342.3744 0002332  40.4302 319.6863 15.08836884 26427,6917.89,95.438,541.368,538.1419999999998,0.0
52850.0,STARLINK-4187,PAYLOAD,2022-12-04 10:55:57,15.08840757,0.0002509,53.2217,341.779,37.0148,323.1017,-3.6011e-05,-8.62e-06,0.0,0 STARLINK-4187,1 52850U 22062W   22338.45552558 -.00000862  00000-0 -36011-4 0  9992,2 52850  53.2217 341.7790 0002509  37.0148 323.1017 15.08840757 25955,6917.878000000002,95.438,541.479,538.007,0.0
52850.0,STARLINK-4187,PAYLOAD,2022-12-05 06:00:35,15.08835546,0.000244,53.2217,338.211,42.551,317.5671,9.5552e-05,1.233e-05,0.0,0 STARLINK-4187,1 52850U 22062W   22339.25040680  .00001233  00000-0  95552-4 0  9995,2 52850  53.2217 338.2110 0002440  42.5510 317.5671 15.08835546 26077,6917.894,95.438,541.447,538.071,0.0
52850.0,STARLINK-4187,PAYLOAD,2022-12-06 05:51:21,15.08841362,0.0002518,53.2207,333.7496,39.1234,320.994,0.00014312,1.99e-05,0.0,0 STARLINK-4187,1 52850U 22062W   22340.24400224  .00001990  00000-0  14312-3 0  9994,2 52850  53.2207 333.7496 0002518  39.1234 320.9940 15.08841362 26715,6917.876,95.437,541.4830000000002,537.999,0.0
52850.0,STARLINK-4187,PAYLOAD,2022-12-06 07:26:44,15.0884386,0.0002443,53.2199,333.4515,36.924,323.192,0.00012345,1.677e-05,0.0,0 STARLINK-4187,1 52850U 22062W   22340.31024121  .00001677  00000-0  12345-3 0  9996,2 52850  53.2199 333.4515 0002443  36.9240 323.1920 15.08843860 26238,6917.869000000002,95.437,541.424,538.044,0.0
52850.0,STARLINK-4187,PAYLOAD,2022-12-06 16:59:04,15.08836254,0.0002643,53.2211,331.6684,37.2475,322.87,3.3932e-05,2.52e-06,0.0,0 STARLINK-4187,1 52850U 22062W   22340.70768991  .00000252  00000-0  33932-4 0  9993,2 52850  53.2211 331.6684 0002643  37.2475 322.8700 15.08836254 26293,6917.892,95.438,541.585,537.928,0.0
52850.0,STARLINK-4187,PAYLOAD,2022-12-06 21:45:14,15.08832614,0.0002479,53.2193,330.7751,35.7285,324.3873,-3.8827e-06,-3.5000000000000016e-06,0.0,0 STARLINK-4187,1 52850U 22062W   22340.90641282 -.00000350  00000-0 -38827-5 0  9998,2 52850  53.2193 330.7751 0002479  35.7285 324.3873 15.08832614 26818,6917.903,95.438,541.4830000000002,538.053,0.0
52850.0,STARLINK-4187,PAYLOAD,2022-12-07 16:49:51,15.08844274,0.0002541,53.2207,327.2075,36.9335,323.1831,5.5622e-05,5.97e-06,0.0,0 STARLINK-4187,1 52850U 22062W   22341.70128750  .00000597  00000-0  55622-4 0  9999,2 52850  53.2207 327.2075 0002541  36.9335 323.1831 15.08844274 26932,6917.8669999999975,95.437,541.49,537.974,0.0
52850.0,STARLINK-4187,PAYLOAD,2022-12-08 10:19:05,15.08847872,0.0002586,53.2189,323.9382,33.9142,326.2015,0.00025177,3.722e-05,0.0,0 STARLINK-4187,1 52850U 22062W   22342.42992393  .00003722  00000-0  25177-3 0  9995,2 52850  53.2189 323.9382 0002586  33.9142 326.2015 15.08847872 26550,6917.856,95.437,541.51,537.932,0.0
52850.0,STARLINK-4187,PAYLOAD,2022-12-09 05:23:42,15.08850784,0.0002284,53.2186,320.3705,26.2075,333.9032,0.00028458,4.245e-05,0.0,0 STARLINK-4187,1 52850U 22062W   22343.22479794  .00004245  00000-0  28458-3 0  9995,2 52850  53.2186 320.3705 0002284  26.2075 333.9032 15.08850784 27160,6917.847,95.437,541.2919999999998,538.132,0.0
52850.0,STARLINK-4187,PAYLOAD,2022-12-10 05:14:31,15.0882986,0.0002491,53.219,315.9098,28.7473,331.3656,-0.00011081,-2.051e-05,0.0,0 STARLINK-4187,1 52850U 22062W   22344.21841665 -.00002051  00000-0 -11081-3 0  9994,2 52850  53.2190 315.9098 0002491  28.7473 331.3656 15.08829860 27311,6917.911,95.438,541.5,538.053,0.0
52850.0,STARLINK-4187,PAYLOAD,2022-12-10 08:25:17,15.08832905,0.0002258,53.2193,315.3137,31.7919,328.3209,-4.468e-05,-9.99e-06,0.0,0 STARLINK-4187,1 52850U 22062W   22344.35089553 -.00000999  00000-0 -44680-4 0  9990,2 52850  53.2193 315.3137 0002258  31.7919 328.3209 15.08832905 26843,6917.901999999999,95.438,541.3290000000002,538.205,0.0
52850.0,STARLINK-4187,PAYLOAD,2022-12-11 03:29:54,15.08838639,0.0002257,53.2186,311.7459,31.1776,328.935,7.758e-05,9.47e-06,0.0,0 STARLINK-4187,1 52850U 22062W   22345.14577353  .00000947  00000-0  77580-4 0  9994,2 52850  53.2186 311.7459 0002257  31.1776 328.9350 15.08838639 27457,6917.885,95.438,541.311,538.188,0.0
52850.0,STARLINK-4187,PAYLOAD,2022-12-11 09:51:27,15.08843024,0.0002314,53.2186,310.5565,30.8539,329.2589,0.00014415,2.007e-05,0.0,0 STARLINK-4187,1 52850U 22062W   22345.41073209  .00002007  00000-0  14415-3 0  9991,2 52850  53.2186 310.5565 0002314  30.8539 329.2589 15.08843024 27002,6917.871,95.437,541.337,538.135,0.0
52850.0,STARLINK-4187,PAYLOAD,2022-12-11 20:59:09,15.08840806,0.0002281,53.2188,308.4749,29.7284,330.3837,0.00019206,2.77e-05,0.0,0 STARLINK-4187,1 52850U 22062W   22345.87441579  .00002770  00000-0  19206-3 0  9990,2 52850  53.2188 308.4749 0002281  29.7284 330.3837 15.08840806 27072,6917.878000000002,95.438,541.321,538.165,0.0
52850.0,STARLINK-4187,PAYLOAD,2022-12-12 06:31:28,15.0883723,0.0002219,53.2192,306.6904,31.5215,328.591,7.5112e-05,9.07e-06,0.0,0 STARLINK-4187,1 52850U 22062W   22346.27185771  .00000907  00000-0  75112-4 0  9993,2 52850  53.2192 306.6904 0002219  31.5215 328.5910 15.08837230 27625,6917.889,95.438,541.289,538.219,0.0
52850.0,STARLINK-4187,PAYLOAD,2022-12-13 06:22:16,15.08835194,0.0002244,53.2195,302.2296,30.7976,329.3147,2.6863e-05,1.39e-06,0.0,0 STARLINK-4187,1 52850U 22062W   22347.26546312  .00000139  00000-0  26863-4 0  9991,2 52850  53.2195 302.2296 0002244  30.7976 329.3147 15.08835194 27287,6917.895,95.438,541.312,538.2080000000002,0.0
52850.0,STARLINK-4187,PAYLOAD,2022-12-13 20:40:43,15.088425699999998,0.0002146,53.2193,299.5531,34.1378,325.9752,3.8857e-05,3.3e-06,0.0,0 STARLINK-4187,1 52850U 22062W   22347.86161722  .00000330  00000-0  38857-4 0  9994,2 52850  53.2193 299.5531 0002146  34.1378 325.9752 15.08842570 27864,6917.873000000001,95.437,541.222,538.253,0.0
52850.0,STARLINK-4187,PAYLOAD,2022-12-14 06:13:02,15.08844867,0.0002241,53.2193,297.769,32.323,327.7899,3.8019e-05,3.17e-06,0.0,0 STARLINK-4187,1 52850U 22062W   22348.25905560  .00000317  00000-0  38019-4 0  9999,2 52850  53.2193 297.7690 0002241  32.3230 327.7899 15.08844867 27439,6917.866,95.437,541.281,538.18,0.0
52850.0,STARLINK-4187,PAYLOAD,2022-12-14 14:09:57,15.08852059,0.0002268,53.2197,296.282,30.7068,329.4057,-4.7637e-05,-1.047e-05,0.0,0 STARLINK-4187,1 52850U 22062W   22348.59025204 -.00001047  00000-0 -47637-4 0  9993,2 52850  53.2197 296.2820 0002268  30.7068 329.4057 15.08852059 27484,6917.844,95.437,541.2769999999998,538.14,0.0
52850.0,STARLINK-4187,PAYLOAD,2022-12-15 06:03:49,15.08840153,0.0002174,53.2201,293.3107,30.6409,329.4709,0.00012708,1.735e-05,0.0,0 STARLINK-4187,1 52850U 22062W   22349.25265469  .00001735  00000-0  12708-3 0  9998,2 52850  53.2201 293.3107 0002174  30.6409 329.4709 15.08840153 28072,6917.88,95.438,541.249,538.241,0.0
